{
  "type": "FeatureCollection",
  "features": [
    {
      "type": "Feature",
      "properties": {
        "norad_id": 48859,
        "name": "GPS BIII-5  (PRN 11)",
        "group": "gps-ops",
        "lat": -29.648902296688647,
        "lon": -176.3604190010338,
        "alt_km": 20123.853707136772,
        "timestamp": "2025-12-02T08:59:32.973164+00:00",
        "meta_object_name": "GPS BIII-5  (PRN 11)",
        "meta_object_id": "2021-054A",
        "meta_epoch": "2025-11-30T17:12:22.003776",
        "meta_mean_motion": 2.00553931,
        "meta_eccentricity": 0.00246504,
        "meta_inclination": 55.2605,
        "meta_ra_of_asc_node": 340.4377,
        "meta_arg_of_pericenter": 232.9586,
        "meta_mean_anomaly": 227.195,
        "meta_ephemeris_type": 0,
        "meta_classification_type": "U",
        "meta_norad_cat_id": 48859,
        "meta_element_set_no": 999,
        "meta_rev_at_epoch": 3277,
        "meta_bstar": 0,
        "meta_mean_motion_dot": -5.5e-07,
        "meta_mean_motion_ddot": 0,
        "tle_line1": "1 48859U 21054A   25334.71692134 -.00000055  00000+0  00000+0 0  9995",
        "tle_line2": "2 48859  55.2605 340.4377 0024650 232.9586 227.1950  2.00553931 32772"
      },
      "geometry": {
        "type": "Point",
        "coordinates": [
          -176.3604190010338,
          -29.648902296688647
        ]
      }
    },
    {
      "type": "Feature",
      "properties": {
        "norad_id": 55268,
        "name": "GPS BIII-6  (PRN 28)",
        "group": "gps-ops",
        "lat": -53.67506187392126,
        "lon": 48.001078199307635,
        "alt_km": 20190.28043105391,
        "timestamp": "2025-12-02T08:59:32.973175+00:00",
        "meta_object_name": "GPS BIII-6  (PRN 28)",
        "meta_object_id": "2023-009A",
        "meta_epoch": "2025-11-30T00:32:38.315616",
        "meta_mean_motion": 2.00556632,
        "meta_eccentricity": 0.00034826,
        "meta_inclination": 55.1054,
        "meta_ra_of_asc_node": 156.3454,
        "meta_arg_of_pericenter": 359.6796,
        "meta_mean_anomaly": 1.4566,
        "meta_ephemeris_type": 0,
        "meta_classification_type": "U",
        "meta_norad_cat_id": 55268,
        "meta_element_set_no": 999,
        "meta_rev_at_epoch": 2125,
        "meta_bstar": 0,
        "meta_mean_motion_dot": 1.29e-06,
        "meta_mean_motion_ddot": 0,
        "tle_line1": "1 55268U 23009A   25334.02266569  .00000129  00000+0  00000+0 0  9993",
        "tle_line2": "2 55268  55.1054 156.3454 0003482 359.6796   1.4566  2.00556632 21259"
      },
      "geometry": {
        "type": "Point",
        "coordinates": [
          48.001078199307635,
          -53.67506187392126
        ]
      }
    },
    {
      "type": "Feature",
      "properties": {
        "norad_id": 62339,
        "name": "GPS BIII-7  (PRN 01)",
        "group": "gps-ops",
        "lat": -19.177269474682966,
        "lon": -31.978424716354706,
        "alt_km": 20154.497989454205,
        "timestamp": "2025-12-02T08:59:32.973191+00:00",
        "meta_object_name": "GPS BIII-7  (PRN 01)",
        "meta_object_id": "2024-242A",
        "meta_epoch": "2025-11-26T22:16:50.684160",
        "meta_mean_motion": 2.00567458,
        "meta_eccentricity": 0.0011414,
        "meta_inclination": 54.9285,
        "meta_ra_of_asc_node": 342.382,
        "meta_arg_of_pericenter": 343.1444,
        "meta_mean_anomaly": 20.6436,
        "meta_ephemeris_type": 0,
        "meta_classification_type": "U",
        "meta_norad_cat_id": 62339,
        "meta_element_set_no": 999,
        "meta_rev_at_epoch": 720,
        "meta_bstar": 0,
        "meta_mean_motion_dot": -5.6e-07,
        "meta_mean_motion_ddot": 0,
        "tle_line1": "1 62339U 24242A   25330.92836440 -.00000056  00000+0  00000+0 0  9996",
        "tle_line2": "2 62339  54.9285 342.3820 0011414 343.1444  20.6436  2.00567458  7201"
      },
      "geometry": {
        "type": "Point",
        "coordinates": [
          -31.978424716354706,
          -19.177269474682966
        ]
      }
    },
    {
      "type": "Feature",
      "properties": {
        "norad_id": 64202,
        "name": "GPS BIII-8  (PRN 21)",
        "group": "gps-ops",
        "lat": 11.307066053137802,
        "lon": -148.93922674074017,
        "alt_km": 20191.028781927467,
        "timestamp": "2025-12-02T08:59:32.973204+00:00",
        "meta_object_name": "GPS BIII-8  (PRN 21)",
        "meta_object_id": "2025-116A",
        "meta_epoch": "2025-11-27T15:37:05.200896",
        "meta_mean_motion": 2.0055919,
        "meta_eccentricity": 0.00048631,
        "meta_inclination": 55.0944,
        "meta_ra_of_asc_node": 39.2516,
        "meta_arg_of_pericenter": 304.421,
        "meta_mean_anomaly": 50.9436,
        "meta_ephemeris_type": 0,
        "meta_classification_type": "U",
        "meta_norad_cat_id": 64202,
        "meta_element_set_no": 999,
        "meta_rev_at_epoch": 382,
        "meta_bstar": 0,
        "meta_mean_motion_dot": -6e-07,
        "meta_mean_motion_ddot": 0,
        "tle_line1": "1 64202U 25116A   25331.65075464 -.00000060  00000+0  00000+0 0  9995",
        "tle_line2": "2 64202  55.0944  39.2516 0004863 304.4210  50.9436  2.00559190  3825"
      },
      "geometry": {
        "type": "Point",
        "coordinates": [
          -148.93922674074017,
          11.307066053137802
        ]
      }
    }
  ]
}